COSMOS 2361 [-]         
1 25590U 98076A   22270.40617870  .00000062  00000+0  50521-4 0  9991
2 25590  82.9326 130.8155 0030306 286.0191 248.4125 13.73028338190526
COSMOS 2378 [-]         
1 26818U 01023A   22269.91401468  .00000025  00000+0  11156-4 0  9999
2 26818  82.9298 149.0344 0031760 231.5621 128.2682 13.73975440 68249
COSMOS 2389 [-]         
1 27436U 02026A   22269.79103863  .00000025  00000+0  10015-4 0  9997
2 27436  82.9465  95.0157 0047713  92.9169 278.6519 13.74982370 20355
COSMOS 2398 [-]         
1 27818U 03023A   22270.27852469  .00000061  00000+0  49465-4 0  9998
2 27818  82.9463  56.5679 0032277 127.4517 232.9589 13.72217680967351
COSMOS 2407 [+]         
1 28380U 04028A   22269.93694914  .00000038  00000+0  23028-4 0  9990
2 28380  82.9652   1.2944 0040582  93.4564 267.1243 13.76120579913116
COSMOS 2414 [+]         
1 28521U 05002A   22270.34998042  .00000043  00000+0  23211-4 0  9996
2 28521  82.9546 351.2004 0038941 243.0204 116.6974 13.87665621895684
COSMOS 2429 [-]         
1 32052U 07038A   22269.88779144  .00000074  00000+0  61255-4 0  9992
2 32052  82.9786 127.5944 0039724  71.5397 289.0071 13.74969563754841
COSMOS 2454 [-]         
1 35635U 09039A   22270.46532448  .00000042  00000+0  21202-4 0  9998
2 35635  82.9600 337.2732 0018927 182.6699 177.4367 13.89694713668864
COSMOS 2463 [+]         
1 36519U 10017A   22269.49984251  .00000062  00000+0  52210-4 0  9997
2 36519  82.9639 168.6013 0035175 304.1220 229.8443 13.71480238621548
